HULIANWANG DIGUI-79     
1 65311U 25187G   26196.13763713 -.00000109  00000+0  31471-4 0  9994
2 65311  50.0039 105.8988 0000171 310.5300  49.5557 13.29319498 43411
HULIANWANG DIGUI-80     
1 65312U 25187H   26196.18774233 -.00000100  00000+0  52336-4 0  9993
2 65312  50.0029 105.4757 0000119 211.2006 148.8859 13.29322776 43425
HULIANWANG DIGUI-81     
1 65313U 25187J   26196.17111169 -.00000102  00000+0  47982-4 0  9999
2 65313  50.0069 105.4921 0000134 304.8055  55.2804 13.29319650 43432
PELICAN-3               
1 65315U 25188A   26196.16578969  .00004707  00000+0  11495-3 0  9999
2 65315  97.1982 271.9013 0002065 112.2315 247.9151 15.41326708 49626
PELICAN-4               
1 65316U 25188B   26196.18505314  .00004855  00000+0  12213-3 0  9999
2 65316  97.1999 272.0718 0001708  81.9421 278.2020 15.40405487 49625
NAOS                    
1 65317U 25188C   26195.89960619  .00005436  00000+0  14427-3 0  9995
2 65317  97.2029 270.7313 0000380  68.2172 291.9114 15.38707576 49529
CAPELLA-16 (ACADIA-6)   
1 65318U 25188D   26196.15418904  .00003727  00000+0  35438-3 0  9997
2 65318  97.7379 270.8872 0005749 134.9353 225.2334 14.94049259 48093
FFLY03                  
1 65319U 25188E   26196.14760271  .00000749  00000+0  77718-4 0  9993
2 65319  97.7313 270.7818 0008554  21.8974 338.2610 14.92827727 48084
FFLY01                  
1 65320U 25188F   26196.19200678  .00000393  00000+0  43530-4 0  9990
2 65320  97.7369 270.9541 0011184  84.0497 276.1997 14.92712748 48080
LEAP-1                  
1 65321U 25188G   26196.16453748  .00001290  00000+0  13389-3 0  9991
2 65321  97.7355 270.0318 0004523 110.3962 249.7743 14.91648852 48020
FFLY02                  
1 65322U 25188H   26196.17169872  .00000610  00000+0  64483-4 0  9992
2 65322  97.7359 270.9311 0013397  37.9602 322.2559 14.92725511 48088
STARLINK-34899          
1 65323U 25189A   26195.62366532  .00029058  00000+0  94525-3 0  9991
2 65323  53.1600 336.2356 0000859  79.3480 280.7618 15.31674149 50555
STARLINK-34196          
1 65324U 25189B   26196.16670139  .00021678  00000+0  70854-3 0  9992
2 65324  53.1591 333.6237 0001007  88.6864  77.2167 15.31688523  5862
STARLINK-34911          
1 65325U 25189C   26195.66130669  .00013431  00000+0  40788-3 0  9997
2 65325  53.1605 336.4841 0000323  73.7191 286.3847 15.34401623 50550
STARLINK-34902          
1 65326U 25189D   26195.67813610  .00008933  00000+0  27521-3 0  9994
2 65326  53.1610 336.5863 0001028 109.9783 250.1330 15.34400052 50555
STARLINK-34880          
1 65327U 25189E   26196.00002315 -.00017265  00000+0 -50108-3 0  9992
2 65327  53.1600 335.3395 0001054  84.0020 127.1828 15.34396293  5835
STARLINK-34885          
1 65328U 25189F   26195.69822979  .00007099  00000+0  24020-3 0  9999
2 65328  53.1602 336.0043 0001016 124.2419 235.8679 15.31713191 50505
STARLINK-34908          
1 65329U 25189G   26195.67182385  .00012233  00000+0  37260-3 0  9994
2 65329  53.1613 336.5486 0001001  84.4452 275.6665 15.34399481 50559
STARLINK-34864          
1 65330U 25189H   26195.65665371  .00009939  00000+0  33150-3 0  9998
2 65330  53.1621 336.4568 0001457  81.1182 278.9984 15.31710832 50553
STARLINK-34918          
1 65331U 25189J   26195.68422547  .00002319  00000+0  86431-4 0  9994
2 65331  53.1596 335.9125 0000977 116.1963 243.9139 15.31707581 50506
STARLINK-33890          
1 65332U 25189K   26195.68925130  .00020686  00000+0  67624-3 0  9990
2 65332  53.1592 335.9436 0000722  79.0217 281.0866 15.31712360 49368
STARLINK-34602          
1 65333U 25189L   26195.69856527  .00018498  00000+0  60628-3 0  9990
2 65333  53.1608 336.0018 0001088  69.1922 290.9196 15.31704928 50564
STARLINK-34878          
1 65334U 25189M   26195.66132488  .00016841  00000+0  55320-3 0  9994
2 65334  53.1613 336.4857 0001165  76.6430 283.4701 15.31702364 50559
STARLINK-34874          
1 65335U 25189N   26195.70338722  .00011910  00000+0  36310-3 0  9999
2 65335  53.1624 336.7366 0001396  93.6788 266.4374 15.34396810 50556
STARLINK-34835          
1 65336U 25189P   26195.68865586  .00010733  00000+0  32834-3 0  9999
2 65336  53.1603 336.6548 0000789 101.4892 258.6199 15.34397445 50557
STARLINK-34854          
1 65337U 25189Q   26195.65198330  .00009121  00000+0  30527-3 0  9999
2 65337  53.1609 336.4237 0001127 114.7591 245.3528 15.31707263 50499
STARLINK-34751          
1 65338U 25189R   26195.70322961  .00011948  00000+0  39599-3 0  9993
2 65338  53.1610 336.0316 0000607 109.0816 251.0251 15.31714715 50560
STARLINK-34777          
1 65339U 25189S   26195.70789915  .00007109  00000+0  24055-3 0  9995
2 65339  53.1621 336.0626 0000892  95.6714 264.4389 15.31710647 50571
STARLINK-35020          
1 65340U 25189T   26195.60499235  .00031096  00000+0  10088-2 0  9991
2 65340  53.1596 336.1264 0000431 105.2675 254.8374 15.31726753 50501
STARLINK-35016          
1 65341U 25189U   26195.66551025  .00012272  00000+0  37374-3 0  9997
2 65341  53.1612 336.5054 0000677 130.0926 230.0136 15.34400718 50504
