OBJECT_NAME,OBJECT_ID,EPOCH,MEAN_MOTION,ECCENTRICITY,INCLINATION,RA_OF_ASC_NODE,ARG_OF_PERICENTER,MEAN_ANOMALY,EPHEMERIS_TYPE,CLASSIFICATION_TYPE,NORAD_CAT_ID,ELEMENT_SET_NO,REV_AT_EPOCH,BSTAR,MEAN_MOTION_DOT,MEAN_MOTION_DDOT
HULIANWANG DIGUI-79,2025-187G,2026-07-15T03:18:11.848032,13.29319498,.0000171,50.0039,105.8988,310.5300,49.5557,0,U,65311,999,4341,.31471E-4,-.109E-5,0
HULIANWANG DIGUI-80,2025-187H,2026-07-15T04:30:20.937312,13.29322776,.0000119,50.0029,105.4757,211.2006,148.8859,0,U,65312,999,4342,.52336E-4,-.1E-5,0
HULIANWANG DIGUI-81,2025-187J,2026-07-15T04:06:24.050016,13.29319650,.0000134,50.0069,105.4921,304.8055,55.2804,0,U,65313,999,4343,.47982E-4,-.102E-5,0
PELICAN-3,2025-188A,2026-07-15T03:58:44.229216,15.41326708,.0002065,97.1982,271.9013,112.2315,247.9151,0,U,65315,999,4962,.11495E-3,.4707E-4,0
PELICAN-4,2025-188B,2026-07-15T04:26:28.591296,15.40405487,.0001708,97.1999,272.0718,81.9421,278.2020,0,U,65316,999,4962,.12213E-3,.4855E-4,0
NAOS,2025-188C,2026-07-14T21:35:25.974816,15.38707576,.000038,97.2029,270.7313,68.2172,291.9114,0,U,65317,999,4952,.14427E-3,.5436E-4,0
CAPELLA-16 (ACADIA-6),2025-188D,2026-07-15T03:42:01.933056,14.94049259,.0005749,97.7379,270.8872,134.9353,225.2334,0,U,65318,999,4809,.35438E-3,.3727E-4,0
FFLY03,2025-188E,2026-07-15T03:32:32.874144,14.92827727,.0008554,97.7313,270.7818,21.8974,338.2610,0,U,65319,999,4808,.77718E-4,.749E-5,0
FFLY01,2025-188F,2026-07-15T04:36:29.385792,14.92712748,.0011184,97.7369,270.9541,84.0497,276.1997,0,U,65320,999,4808,.4353E-4,.393E-5,0
LEAP-1,2025-188G,2026-07-15T03:56:56.038272,14.91648852,.0004523,97.7355,270.0318,110.3962,249.7743,0,U,65321,999,4802,.13389E-3,.129E-4,0
FFLY02,2025-188H,2026-07-15T04:07:14.769408,14.92725511,.0013397,97.7359,270.9311,37.9602,322.2559,0,U,65322,999,4808,.64483E-4,.61E-5,0
STARLINK-34899,2025-189A,2026-07-14T14:58:04.683648,15.31674149,.00008593,53.1600,336.2356,79.3480,280.7618,0,U,65323,999,5055,.9452525E-3,.29058E-3,0
STARLINK-34196,2025-189B,2026-07-15T04:00:03.000096,15.31688523,.0001007,53.1591,333.6237,88.6864,77.2167,0,U,65324,999,586,.70854E-3,.21678E-3,0
STARLINK-34911,2025-189C,2026-07-14T15:52:16.898016,15.34401623,.00003239,53.1605,336.4841,73.7191,286.3847,0,U,65325,999,5055,.40788303E-3,.13431E-3,0
STARLINK-34902,2025-189D,2026-07-14T16:16:30.959040,15.34400052,.00010284,53.1610,336.5863,109.9783,250.1330,0,U,65326,999,5055,.27521227E-3,.8933E-4,0
STARLINK-34880,2025-189E,2026-07-15T00:00:02.000160,15.34396293,.0001054,53.1600,335.3395,84.0020,127.1828,0,U,65327,999,583,-.50108E-3,-.17265E-3,0
STARLINK-34885,2025-189F,2026-07-14T16:45:27.053856,15.31713191,.00010164,53.1602,336.0043,124.2419,235.8679,0,U,65328,999,5050,.24020018E-3,.7099E-4,0
STARLINK-34908,2025-189G,2026-07-14T16:07:25.580640,15.34399481,.00010015,53.1613,336.5486,84.4452,275.6665,0,U,65329,999,5055,.37260101E-3,.12233E-3,0
STARLINK-34864,2025-189H,2026-07-14T15:45:34.880544,15.31710832,.00014575,53.1621,336.4568,81.1182,278.9984,0,U,65330,999,5055,.33149527E-3,.9939E-4,0
STARLINK-34918,2025-189J,2026-07-14T16:25:17.080608,15.31707581,.0000977,53.1596,335.9125,116.1963,243.9139,0,U,65331,999,5050,.86430546E-4,.2319E-4,0
STARLINK-33890,2025-189K,2026-07-14T16:32:31.312320,15.31712360,.00007229,53.1592,335.9436,79.0217,281.0866,0,U,65332,999,4936,.6762424E-3,.20686E-3,0
STARLINK-34602,2025-189L,2026-07-14T16:45:56.039328,15.31704928,.00010884,53.1608,336.0018,69.1922,290.9196,0,U,65333,999,5056,.60627947E-3,.18498E-3,0
STARLINK-34878,2025-189M,2026-07-14T15:52:18.469632,15.31702364,.00011655,53.1613,336.4857,76.6430,283.4701,0,U,65334,999,5055,.55319628E-3,.16841E-3,0
STARLINK-34874,2025-189N,2026-07-14T16:52:52.655808,15.34396810,.00013965,53.1624,336.7366,93.6788,266.4374,0,U,65335,999,5055,.3631018E-3,.1191E-3,0
STARLINK-34835,2025-189P,2026-07-14T16:31:39.866304,15.34397445,.00007895,53.1603,336.6548,101.4892,258.6199,0,U,65336,999,5055,.32834489E-3,.10733E-3,0
STARLINK-34854,2025-189Q,2026-07-14T15:38:51.357120,15.31707263,.00011277,53.1609,336.4237,114.7591,245.3528,0,U,65337,999,5049,.3052651E-3,.9121E-4,0
STARLINK-34751,2025-189R,2026-07-14T16:52:39.038304,15.31714715,.00006079,53.1610,336.0316,109.0816,251.0251,0,U,65338,999,5056,.39598654E-3,.11948E-3,0
STARLINK-34777,2025-189S,2026-07-14T16:59:22.486560,15.31710647,.00008921,53.1621,336.0626,95.6714,264.4389,0,U,65339,999,5057,.24055282E-3,.7109E-4,0
STARLINK-35020,2025-189T,2026-07-14T14:31:11.339040,15.31726753,.0000431,53.1596,336.1264,105.2675,254.8374,0,U,65340,999,5050,.10088E-2,.31096E-3,0
STARLINK-35016,2025-189U,2026-07-14T15:58:20.085600,15.34400718,.00006774,53.1612,336.5054,130.0926,230.0136,0,U,65341,999,5050,.37374058E-3,.12272E-3,0
